<?xml version="1.0" encoding="UTF-8"?>
<seiscomp xmlns="http://geofon.gfz-potsdam.de/ns/seiscomp3-schema/0.12" version="0.12">
  <EventParameters publicID="smi:local/02eca644-7f59-4a14-afcd-4ccf6af35618">
    <pick publicID="smi:local/9ba9dba5-06d5-4877-8e11-ebcdcf859638">
      <time>
        <value>2022-09-10T15:58:16.727000Z</value>
        <uncertainty>0.0</uncertainty>
      </time>
      <waveformID networkCode="AM" stationCode="RF5BC" locationCode="00" channelCode="EHZ"/>
      <phaseHint>P</phaseHint>
    </pick>
    <pick publicID="smi:local/32d44a3e-f2d0-4f95-8fe3-d13c7a66bd6c">
      <time>
        <value>2022-09-10T15:58:18.757000Z</value>
        <uncertainty>0.0</uncertainty>
      </time>
      <waveformID networkCode="AM" stationCode="RF5BC" locationCode="00" channelCode="EHN"/>
      <phaseHint>S</phaseHint>
    </pick>
    <pick publicID="smi:local/c3a6931b-39ca-429a-9aa3-1697403af094">
      <time>
        <value>2022-09-10T15:58:17.574000Z</value>
        <uncertainty>0.0</uncertainty>
      </time>
      <waveformID networkCode="FR" stationCode="ILLF" locationCode="00" channelCode="HHZ"/>
      <phaseHint>P</phaseHint>
    </pick>
    <pick publicID="smi:local/1f3c7be4-af76-447c-bb62-bbe2ee95718f">
      <time>
        <value>2022-09-10T15:58:20.244000Z</value>
        <uncertainty>0.0</uncertainty>
      </time>
      <waveformID networkCode="FR" stationCode="ILLF" locationCode="00" channelCode="HHN"/>
      <phaseHint>S</phaseHint>
    </pick>
    <pick publicID="smi:local/e02b1c28-af68-4f54-a2c4-122e9bfb4d67">
      <time>
        <value>2022-09-10T15:58:16.407000Z</value>
        <uncertainty>0.0</uncertainty>
      </time>
      <waveformID networkCode="AM" stationCode="R0220" locationCode="00" channelCode="EHZ"/>
      <phaseHint>P</phaseHint>
    </pick>
    <pick publicID="smi:local/2e72715a-f1e1-4660-a090-5411e4a45881">
      <time>
        <value>2022-09-10T15:58:18.157000Z</value>
        <uncertainty>0.0</uncertainty>
      </time>
      <waveformID networkCode="AM" stationCode="R0220" locationCode="00" channelCode="EHN"/>
      <phaseHint>S</phaseHint>
    </pick>
    <pick publicID="smi:local/317aac4e-95e6-46cc-af8a-91edc84ce6cf">
      <time>
        <value>2022-09-10T15:58:16.951000Z</value>
        <uncertainty>0.0</uncertainty>
      </time>
      <waveformID networkCode="AM" stationCode="RFAD2" locationCode="00" channelCode="EHZ"/>
      <phaseHint>P</phaseHint>
    </pick>
    <pick publicID="smi:local/1ca9de89-c15f-4461-ac3c-41794376afd9">
      <time>
        <value>2022-09-10T15:58:19.091000Z</value>
        <uncertainty>0.0</uncertainty>
      </time>
      <waveformID networkCode="AM" stationCode="RFAD2" locationCode="00" channelCode="EHN"/>
      <phaseHint>S</phaseHint>
    </pick>
    <pick publicID="smi:local/4d8327fd-0595-4027-8ab5-bd1262460af3">
      <time>
        <value>2022-09-10T15:58:18.838000Z</value>
        <uncertainty>0.0</uncertainty>
      </time>
      <waveformID networkCode="AM" stationCode="RDE4D" locationCode="00" channelCode="EHZ"/>
      <phaseHint>P</phaseHint>
    </pick>
    <pick publicID="smi:local/1e4fa897-ca02-4986-ba3b-2caf943b4717">
      <time>
        <value>2022-09-10T15:58:22.368000Z</value>
        <uncertainty>0.0</uncertainty>
      </time>
      <waveformID networkCode="AM" stationCode="RDE4D" locationCode="00" channelCode="EHN"/>
      <phaseHint>S</phaseHint>
    </pick>
    <pick publicID="smi:local/7690948c-8163-4fb0-92cb-04aa746d3843">
      <time>
        <value>2022-09-10T15:58:18.828000Z</value>
        <uncertainty>0.0</uncertainty>
      </time>
      <waveformID networkCode="AM" stationCode="R4977" locationCode="00" channelCode="EHZ"/>
      <phaseHint>P</phaseHint>
    </pick>
    <pick publicID="smi:local/4063bafe-c946-41f6-b10f-709ac4a4ee48">
      <time>
        <value>2022-09-10T15:58:22.508000Z</value>
        <uncertainty>0.0</uncertainty>
      </time>
      <waveformID networkCode="AM" stationCode="R4977" locationCode="00" channelCode="EHN"/>
      <phaseHint>S</phaseHint>
    </pick>
    <pick publicID="smi:local/8b385696-b029-4127-b297-038c8e5a628f">
      <time>
        <value>2022-09-10T15:58:18.100000Z</value>
        <uncertainty>0.0</uncertainty>
      </time>
      <waveformID networkCode="LE" stationCode="ENDD" locationCode="" channelCode="HHZ"/>
      <phaseHint>P</phaseHint>
    </pick>
    <pick publicID="smi:local/bb03321d-57a0-410b-a5d6-5344e2701214">
      <time>
        <value>2022-09-10T15:58:20.990000Z</value>
        <uncertainty>0.0</uncertainty>
      </time>
      <waveformID networkCode="LE" stationCode="ENDD" locationCode="" channelCode="HHN"/>
      <phaseHint>S</phaseHint>
    </pick>
    <pick publicID="smi:local/e8ae9941-0c39-4d0a-8aad-c1549775d7fc">
      <time>
        <value>2022-09-10T15:58:20.695000Z</value>
        <uncertainty>0.0</uncertainty>
      </time>
      <waveformID networkCode="FR" stationCode="WALT" locationCode="00" channelCode="HHZ"/>
      <phaseHint>P</phaseHint>
    </pick>
    <pick publicID="smi:local/100fb21b-c9d4-49bd-8945-50a14d86e526">
      <time>
        <value>2022-09-10T15:58:25.455000Z</value>
        <uncertainty>0.0</uncertainty>
      </time>
      <waveformID networkCode="FR" stationCode="WALT" locationCode="00" channelCode="HHN"/>
      <phaseHint>S</phaseHint>
    </pick>
    <pick publicID="smi:local/9b9d9f58-769e-43e9-8158-10ac57113f6d">
      <time>
        <value>2022-09-10T15:58:20.745000Z</value>
        <uncertainty>0.0</uncertainty>
      </time>
      <waveformID networkCode="CH" stationCode="BOURR" locationCode="" channelCode="HHZ"/>
      <phaseHint>P</phaseHint>
    </pick>
    <pick publicID="smi:local/3a61df98-5ff7-4b56-8db5-36fe7a4cbfb0">
      <time>
        <value>2022-09-10T15:58:25.555000Z</value>
        <uncertainty>0.0</uncertainty>
      </time>
      <waveformID networkCode="CH" stationCode="BOURR" locationCode="" channelCode="HHN"/>
      <phaseHint>S</phaseHint>
    </pick>
    <pick publicID="smi:local/e64eb7a1-f69b-4259-a624-dbcbdf218f79">
      <time>
        <value>2022-09-10T15:58:21.425000Z</value>
        <uncertainty>0.0</uncertainty>
      </time>
      <waveformID networkCode="CH" stationCode="BALST" locationCode="" channelCode="HHZ"/>
      <phaseHint>P</phaseHint>
    </pick>
    <pick publicID="smi:local/3302bd2e-1ad6-4960-a326-0d17bf510606">
      <time>
        <value>2022-09-10T15:58:27.025000Z</value>
        <uncertainty>0.0</uncertainty>
      </time>
      <waveformID networkCode="CH" stationCode="BALST" locationCode="" channelCode="HHN"/>
      <phaseHint>S</phaseHint>
    </pick>
    <pick publicID="smi:local/5c168758-b39b-4a34-aa0e-128df93e3815">
      <time>
        <value>2022-09-10T15:58:22.720000Z</value>
        <uncertainty>0.0</uncertainty>
      </time>
      <waveformID networkCode="LE" stationCode="VOGT" locationCode="" channelCode="EHZ"/>
      <phaseHint>P</phaseHint>
    </pick>
    <pick publicID="smi:local/9eb34b7a-2332-42c5-ad2e-1863f73bfe26">
      <time>
        <value>2022-09-10T15:58:28.830000Z</value>
        <uncertainty>0.0</uncertainty>
      </time>
      <waveformID networkCode="LE" stationCode="VOGT" locationCode="" channelCode="EHN"/>
      <phaseHint>S</phaseHint>
    </pick>
    <pick publicID="smi:local/11248e04-da9f-48eb-ad36-85f24cf19c44">
      <time>
        <value>2022-09-10T15:58:22.140000Z</value>
        <uncertainty>0.0</uncertainty>
      </time>
      <waveformID networkCode="LE" stationCode="KIZ" locationCode="" channelCode="HHZ"/>
      <phaseHint>P</phaseHint>
    </pick>
    <pick publicID="smi:local/e287a81d-4fec-4c08-ba69-83de265b6b18">
      <time>
        <value>2022-09-10T15:58:27.830000Z</value>
        <uncertainty>0.0</uncertainty>
      </time>
      <waveformID networkCode="LE" stationCode="KIZ" locationCode="" channelCode="HHN"/>
      <phaseHint>S</phaseHint>
    </pick>
    <pick publicID="smi:local/bcf3fa87-b27f-4376-a77b-3682bc327c47">
      <time>
        <value>2022-09-10T15:58:22.170000Z</value>
        <uncertainty>0.0</uncertainty>
      </time>
      <waveformID networkCode="LE" stationCode="FELD" locationCode="" channelCode="EHZ"/>
      <phaseHint>P</phaseHint>
    </pick>
    <pick publicID="smi:local/b9d5ec2c-a625-4a5d-813d-252488987afd">
      <time>
        <value>2022-09-10T15:58:28.020000Z</value>
        <uncertainty>0.0</uncertainty>
      </time>
      <waveformID networkCode="LE" stationCode="FELD" locationCode="" channelCode="EHN"/>
      <phaseHint>S</phaseHint>
    </pick>
    <pick publicID="smi:local/c36913c1-e74a-4972-9248-ce8466cf4639">
      <time>
        <value>2022-09-10T15:58:24.570000Z</value>
        <uncertainty>0.0</uncertainty>
      </time>
      <waveformID networkCode="FR" stationCode="RONF" locationCode="00" channelCode="HHZ"/>
      <phaseHint>P</phaseHint>
    </pick>
    <pick publicID="smi:local/b3659746-1a33-4de9-9923-3844db8ae518">
      <time>
        <value>2022-09-10T15:58:32.100000Z</value>
        <uncertainty>0.0</uncertainty>
      </time>
      <waveformID networkCode="FR" stationCode="RONF" locationCode="00" channelCode="HHN"/>
      <phaseHint>S</phaseHint>
    </pick>
    <pick publicID="smi:local/e58674ed-c730-491f-aee4-212c3b23ca29">
      <time>
        <value>2022-09-10T15:58:22.845000Z</value>
        <uncertainty>0.0</uncertainty>
      </time>
      <waveformID networkCode="CH" stationCode="SULZ" locationCode="" channelCode="HHZ"/>
      <phaseHint>P</phaseHint>
    </pick>
    <pick publicID="smi:local/53be38a9-9bd0-4338-b511-56f6baf6e9fa">
      <time>
        <value>2022-09-10T15:58:29.545000Z</value>
        <uncertainty>0.0</uncertainty>
      </time>
      <waveformID networkCode="CH" stationCode="SULZ" locationCode="" channelCode="HHN"/>
      <phaseHint>S</phaseHint>
    </pick>
    <pick publicID="smi:local/23c65ef7-722a-4580-84d4-e693e3d764e4">
      <time>
        <value>2022-09-10T15:58:25.819000Z</value>
        <uncertainty>0.0</uncertainty>
      </time>
      <waveformID networkCode="AM" stationCode="RA36C" locationCode="00" channelCode="EHZ"/>
      <phaseHint>P</phaseHint>
    </pick>
    <pick publicID="smi:local/b61bfb29-2140-4422-b0db-cc4110cd0252">
      <time>
        <value>2022-09-10T15:58:34.309000Z</value>
        <uncertainty>0.0</uncertainty>
      </time>
      <waveformID networkCode="AM" stationCode="RA36C" locationCode="00" channelCode="EHN"/>
      <phaseHint>S</phaseHint>
    </pick>
    <pick publicID="smi:local/5e4f29a3-e3be-4850-8d52-e369f47bb905">
      <time>
        <value>2022-09-10T15:58:25.914000Z</value>
        <uncertainty>0.0</uncertainty>
      </time>
      <waveformID networkCode="AM" stationCode="RD035" locationCode="00" channelCode="EHZ"/>
      <phaseHint>P</phaseHint>
    </pick>
    <pick publicID="smi:local/c08bf0eb-e06b-4762-9dfa-7a6dbf9d84fa">
      <time>
        <value>2022-09-10T15:58:34.374000Z</value>
        <uncertainty>0.0</uncertainty>
      </time>
      <waveformID networkCode="AM" stationCode="RD035" locationCode="00" channelCode="EHN"/>
      <phaseHint>S</phaseHint>
    </pick>
    <pick publicID="smi:local/3c90a969-cbce-460c-878a-ce7c18f4840f">
      <time>
        <value>2022-09-10T15:58:26.293000Z</value>
        <uncertainty>0.0</uncertainty>
      </time>
      <waveformID networkCode="AM" stationCode="R890B" locationCode="00" channelCode="EHZ"/>
      <phaseHint>P</phaseHint>
    </pick>
    <pick publicID="smi:local/828269ac-059b-431f-80a3-478b3d21ead8">
      <time>
        <value>2022-09-10T15:58:34.923000Z</value>
        <uncertainty>0.0</uncertainty>
      </time>
      <waveformID networkCode="AM" stationCode="R890B" locationCode="00" channelCode="EHN"/>
      <phaseHint>S</phaseHint>
    </pick>
    <pick publicID="smi:local/223438e4-293e-4185-b507-03b098694d86">
      <time>
        <value>2022-09-10T15:58:26.774000Z</value>
        <uncertainty>0.0</uncertainty>
      </time>
      <waveformID networkCode="FR" stationCode="ZELS" locationCode="00" channelCode="HHZ"/>
      <phaseHint>P</phaseHint>
    </pick>
    <pick publicID="smi:local/c268c000-136f-4c4d-8748-8d127f106954">
      <time>
        <value>2022-09-10T15:58:35.664000Z</value>
        <uncertainty>0.0</uncertainty>
      </time>
      <waveformID networkCode="FR" stationCode="ZELS" locationCode="00" channelCode="HHN"/>
      <phaseHint>S</phaseHint>
    </pick>
    <pick publicID="smi:local/c4068ef3-d3e9-4cd1-97f1-b8dd6963eb9e">
      <time>
        <value>2022-09-10T15:58:27.807000Z</value>
        <uncertainty>0.0</uncertainty>
      </time>
      <waveformID networkCode="AM" stationCode="R1104" locationCode="00" channelCode="EHZ"/>
      <phaseHint>P</phaseHint>
    </pick>
    <pick publicID="smi:local/e13f1fda-b8f9-48f8-9be3-59db8db9ce00">
      <time>
        <value>2022-09-10T15:58:37.497000Z</value>
        <uncertainty>0.0</uncertainty>
      </time>
      <waveformID networkCode="AM" stationCode="R1104" locationCode="00" channelCode="EHN"/>
      <phaseHint>S</phaseHint>
    </pick>
    <pick publicID="smi:local/7bea813d-a32b-464e-a7e1-b9d00f1d7d53">
      <time>
        <value>2022-09-10T15:58:27.330000Z</value>
        <uncertainty>0.0</uncertainty>
      </time>
      <waveformID networkCode="FR" stationCode="CHMF" locationCode="00" channelCode="HHZ"/>
      <phaseHint>P</phaseHint>
    </pick>
    <pick publicID="smi:local/e4d55739-dfca-472a-81c5-6043131ded2b">
      <time>
        <value>2022-09-10T15:58:36.580000Z</value>
        <uncertainty>0.0</uncertainty>
      </time>
      <waveformID networkCode="FR" stationCode="CHMF" locationCode="00" channelCode="HHN"/>
      <phaseHint>S</phaseHint>
    </pick>
    <pick publicID="smi:local/40ad705d-7984-46c5-a7f5-8c3606c61cbb">
      <time>
        <value>2022-09-10T15:58:28.635000Z</value>
        <uncertainty>0.0</uncertainty>
      </time>
      <waveformID networkCode="FR" stationCode="WLS" locationCode="00" channelCode="HHZ"/>
      <phaseHint>P</phaseHint>
    </pick>
    <pick publicID="smi:local/366419c9-8efe-4e0e-804f-faaffccba7c7">
      <time>
        <value>2022-09-10T15:58:38.405000Z</value>
        <uncertainty>0.0</uncertainty>
      </time>
      <waveformID networkCode="FR" stationCode="WLS" locationCode="00" channelCode="HHN"/>
      <phaseHint>S</phaseHint>
    </pick>
    <pick publicID="smi:local/6811683a-4e28-4e71-8491-d37797312c2e">
      <time>
        <value>2022-09-10T15:58:27.125000Z</value>
        <uncertainty>0.0</uncertainty>
      </time>
      <waveformID networkCode="CH" stationCode="SLE" locationCode="" channelCode="HHZ"/>
      <phaseHint>P</phaseHint>
    </pick>
    <pick publicID="smi:local/f923b376-7406-4acb-910d-eb9d5d165aaf">
      <time>
        <value>2022-09-10T15:58:36.395000Z</value>
        <uncertainty>0.0</uncertainty>
      </time>
      <waveformID networkCode="CH" stationCode="SLE" locationCode="" channelCode="HHN"/>
      <phaseHint>S</phaseHint>
    </pick>
    <pick publicID="smi:local/5ca978f9-87d2-4d59-9ea4-f6290f38798a">
      <time>
        <value>2022-09-10T15:58:29.733000Z</value>
        <uncertainty>0.0</uncertainty>
      </time>
      <waveformID networkCode="AM" stationCode="R52B5" locationCode="00" channelCode="EHZ"/>
      <phaseHint>P</phaseHint>
    </pick>
    <pick publicID="smi:local/3d421acf-24d0-4e69-ac9f-dac8f9b9bba3">
      <time>
        <value>2022-09-10T15:58:41.103000Z</value>
        <uncertainty>0.0</uncertainty>
      </time>
      <waveformID networkCode="AM" stationCode="R52B5" locationCode="00" channelCode="EHN"/>
      <phaseHint>S</phaseHint>
    </pick>
    <pick publicID="smi:local/1b18fc3e-f1a4-47bc-bae1-3789894d91e2">
      <time>
        <value>2022-09-10T15:58:30.139000Z</value>
        <uncertainty>0.0</uncertainty>
      </time>
      <waveformID networkCode="AM" stationCode="R5C13" locationCode="00" channelCode="EHZ"/>
      <phaseHint>P</phaseHint>
    </pick>
    <pick publicID="smi:local/bef3c6c0-6024-4977-8235-699c32c526f1">
      <time>
        <value>2022-09-10T15:58:41.589000Z</value>
        <uncertainty>0.0</uncertainty>
      </time>
      <waveformID networkCode="AM" stationCode="R5C13" locationCode="00" channelCode="EHN"/>
      <phaseHint>S</phaseHint>
    </pick>
    <pick publicID="smi:local/276d4e40-2107-440c-923b-1a89a6d6647e">
      <time>
        <value>2022-09-10T15:58:29.891000Z</value>
        <uncertainty>0.0</uncertainty>
      </time>
      <waveformID networkCode="AM" stationCode="R6780" locationCode="00" channelCode="EHZ"/>
      <phaseHint>P</phaseHint>
    </pick>
    <pick publicID="smi:local/e8fd8ed1-8c06-44fc-a1f8-42dc7e43e183">
      <time>
        <value>2022-09-10T15:58:41.061000Z</value>
        <uncertainty>0.0</uncertainty>
      </time>
      <waveformID networkCode="AM" stationCode="R6780" locationCode="00" channelCode="EHN"/>
      <phaseHint>S</phaseHint>
    </pick>
    <pick publicID="smi:local/7b8dae21-3a0d-4ad7-8f02-4cb05e182656">
      <time>
        <value>2022-09-10T15:58:30.129000Z</value>
        <uncertainty>0.0</uncertainty>
      </time>
      <waveformID networkCode="AM" stationCode="RC367" locationCode="00" channelCode="EHZ"/>
      <phaseHint>P</phaseHint>
    </pick>
    <pick publicID="smi:local/357aa8b1-c938-4312-b871-d2fdd68b0868">
      <time>
        <value>2022-09-10T15:58:42.259000Z</value>
        <uncertainty>0.0</uncertainty>
      </time>
      <waveformID networkCode="AM" stationCode="RC367" locationCode="00" channelCode="EHN"/>
      <phaseHint>S</phaseHint>
    </pick>
    <pick publicID="smi:local/aaa2fa6a-3eff-4a57-8019-97f44c85765b">
      <time>
        <value>2022-09-10T15:58:30.296000Z</value>
        <uncertainty>0.0</uncertainty>
      </time>
      <waveformID networkCode="AM" stationCode="RFF1D" locationCode="00" channelCode="EHZ"/>
      <phaseHint>P</phaseHint>
    </pick>
    <pick publicID="smi:local/ac37c5c0-0fc5-4cea-a330-bf113b64f490">
      <time>
        <value>2022-09-10T15:58:41.986000Z</value>
        <uncertainty>0.0</uncertainty>
      </time>
      <waveformID networkCode="AM" stationCode="RFF1D" locationCode="00" channelCode="EHN"/>
      <phaseHint>S</phaseHint>
    </pick>
    <pick publicID="smi:local/aeda7727-d09a-4085-be4e-3fb72657268c">
      <time>
        <value>2022-09-10T15:58:30.332000Z</value>
        <uncertainty>0.0</uncertainty>
      </time>
      <waveformID networkCode="AM" stationCode="RA7C1" locationCode="00" channelCode="EHZ"/>
      <phaseHint>P</phaseHint>
    </pick>
    <pick publicID="smi:local/a0fc9442-e3c3-4729-8daa-ec32c7809b4f">
      <time>
        <value>2022-09-10T15:58:42.782000Z</value>
        <uncertainty>0.0</uncertainty>
      </time>
      <waveformID networkCode="AM" stationCode="RA7C1" locationCode="00" channelCode="EHN"/>
      <phaseHint>S</phaseHint>
    </pick>
    <pick publicID="smi:local/4954bab1-36ae-4548-be32-7aa73151d11c">
      <time>
        <value>2022-09-10T15:58:31.025000Z</value>
        <uncertainty>0.0</uncertainty>
      </time>
      <waveformID networkCode="FO" stationCode="ILLK" locationCode="00" channelCode="HHZ"/>
      <phaseHint>P</phaseHint>
    </pick>
    <pick publicID="smi:local/5a3c35e0-9a32-4862-9b78-85469bd3a002">
      <time>
        <value>2022-09-10T15:58:43.115000Z</value>
        <uncertainty>0.0</uncertainty>
      </time>
      <waveformID networkCode="FO" stationCode="ILLK" locationCode="00" channelCode="HHN"/>
      <phaseHint>S</phaseHint>
    </pick>
    <pick publicID="smi:local/6faeb0ee-a6ee-4692-9a00-97b8625d1e01">
      <time>
        <value>2022-09-10T15:58:30.538000Z</value>
        <uncertainty>0.0</uncertainty>
      </time>
      <waveformID networkCode="AM" stationCode="R7B4F" locationCode="00" channelCode="EHZ"/>
      <phaseHint>P</phaseHint>
    </pick>
    <pick publicID="smi:local/290b05e0-4e73-42f4-bc19-2f64bb5a97fe">
      <time>
        <value>2022-09-10T15:58:43.778000Z</value>
        <uncertainty>0.0</uncertainty>
      </time>
