19T    ?    ?    ? P      ? 20220910 1558 31.3700 GAU  0.00e+00 -1.00e+00 -1.00e+00 -1.00e+00
19T    ?    ?    ? S      ? 20220910 1558 45.7000 GAU  0.00e+00 -1.00e+00 -1.00e+00 -1.00e+00
AIGLE  ?    ?    ? P      ? 20220910 1558 37.6150 GAU  0.00e+00 -1.00e+00 -1.00e+00 -1.00e+00
AIGLE  ?    ?    ? S      ? 20220910 1558 57.5750 GAU  0.00e+00 -1.00e+00 -1.00e+00 -1.00e+00
AVM    ?    ?    ? P      ? 20220910 1558 59.4400 GAU  0.00e+00 -1.00e+00 -1.00e+00 -1.00e+00
AVP    ?    ?    ? P      ? 20220910 1558 59.5040 GAU  0.00e+00 -1.00e+00 -1.00e+00 -1.00e+00
AVP    ?    ?    ? S      ? 20220910 1559 11.5840 GAU  0.00e+00 -1.00e+00 -1.00e+00 -1.00e+00
AVR    ?    ?    ? P      ? 20220910 1558 59.3870 GAU  0.00e+00 -1.00e+00 -1.00e+00 -1.00e+00
AVR    ?    ?    ? S      ? 20220910 1559 10.0770 GAU  0.00e+00 -1.00e+00 -1.00e+00 -1.00e+00
BABA   ?    ?    ? P      ? 20220910 1558 33.7700 GAU  0.00e+00 -1.00e+00 -1.00e+00 -1.00e+00
BABA   ?    ?    ? S      ? 20220910 1558 50.7600 GAU  0.00e+00 -1.00e+00 -1.00e+00 -1.00e+00
BALST  ?    ?    ? P      ? 20220910 1558 21.4250 GAU  0.00e+00 -1.00e+00 -1.00e+00 -1.00e+00
BALST  ?    ?    ? S      ? 20220910 1558 27.0250 GAU  0.00e+00 -1.00e+00 -1.00e+00 -1.00e+00
BETHI  ?    ?    ? P      ? 20220910 1558 49.4900 GAU  0.00e+00 -1.00e+00 -1.00e+00 -1.00e+00
BETS   ?    ?    ? P      ? 20220910 1558 38.2150 GAU  0.00e+00 -1.00e+00 -1.00e+00 -1.00e+00
BETS   ?    ?    ? S      ? 20220910 1558 55.1850 GAU  0.00e+00 -1.00e+00 -1.00e+00 -1.00e+00
BFO    ?    ?    ? P      ? 20220910 1558 29.8880 GAU  0.00e+00 -1.00e+00 -1.00e+00 -1.00e+00
BFO    ?    ?    ? S      ? 20220910 1558 41.7680 GAU  0.00e+00 -1.00e+00 -1.00e+00 -1.00e+00
BHB    ?    ?    ? P      ? 20220910 1558 58.5800 GAU  0.00e+00 -1.00e+00 -1.00e+00 -1.00e+00
BHB    ?    ?    ? S      ? 20220910 1559  7.4100 GAU  0.00e+00 -1.00e+00 -1.00e+00 -1.00e+00
BLAF   ?    ?    ? P      ? 20220910 1559 11.6300 GAU  0.00e+00 -1.00e+00 -1.00e+00 -1.00e+00
BOUC   ?    ?    ? P      ? 20220910 1558 31.1300 GAU  0.00e+00 -1.00e+00 -1.00e+00 -1.00e+00
BOUC   ?    ?    ? S      ? 20220910 1558 43.6700 GAU  0.00e+00 -1.00e+00 -1.00e+00 -1.00e+00
BOURR  ?    ?    ? P      ? 20220910 1558 20.7450 GAU  0.00e+00 -1.00e+00 -1.00e+00 -1.00e+00
BOURR  ?    ?    ? S      ? 20220910 1558 25.5550 GAU  0.00e+00 -1.00e+00 -1.00e+00 -1.00e+00
BRANT  ?    ?    ? P      ? 20220910 1558 33.1750 GAU  0.00e+00 -1.00e+00 -1.00e+00 -1.00e+00
BRANT  ?    ?    ? S      ? 20220910 1558 46.8050 GAU  0.00e+00 -1.00e+00 -1.00e+00 -1.00e+00
CALF   ?    ?    ? P      ? 20220910 1559 13.0500 GAU  0.00e+00 -1.00e+00 -1.00e+00 -1.00e+00
CANO   ?    ?    ? P      ? 20220910 1559  8.5900 GAU  0.00e+00 -1.00e+00 -1.00e+00 -1.00e+00
CANO   ?    ?    ? S      ? 20220910 1559 10.9400 GAU  0.00e+00 -1.00e+00 -1.00e+00 -1.00e+00
CHA2   ?    ?    ? P      ? 20220910 1558 56.6300 GAU  0.00e+00 -1.00e+00 -1.00e+00 -1.00e+00
CHA2   ?    ?    ? S      ? 20220910 1559  5.9400 GAU  0.00e+00 -1.00e+00 -1.00e+00 -1.00e+00
CHMF   ?    ?    ? P      ? 20220910 1558 27.3300 GAU  0.00e+00 -1.00e+00 -1.00e+00 -1.00e+00
CHMF   ?    ?    ? S      ? 20220910 1558 36.5800 GAU  0.00e+00 -1.00e+00 -1.00e+00 -1.00e+00
CIEL   ?    ?    ? P      ? 20220910 1558 34.4250 GAU  0.00e+00 -1.00e+00 -1.00e+00 -1.00e+00
CIEL   ?    ?    ? S      ? 20220910 1558 51.5750 GAU  0.00e+00 -1.00e+00 -1.00e+00 -1.00e+00
CIRO   ?    ?    ? P      ? 20220910 1558 48.6600 GAU  0.00e+00 -1.00e+00 -1.00e+00 -1.00e+00
CIRO   ?    ?    ? S      ? 20220910 1558 53.1700 GAU  0.00e+00 -1.00e+00 -1.00e+00 -1.00e+00
CREF   ?    ?    ? P      ? 20220910 1559  3.7000 GAU  0.00e+00 -1.00e+00 -1.00e+00 -1.00e+00
DIX    ?    ?    ? P      ? 20220910 1558 41.6650 GAU  0.00e+00 -1.00e+00 -1.00e+00 -1.00e+00
DIX    ?    ?    ? S      ? 20220910 1559  4.3550 GAU  0.00e+00 -1.00e+00 -1.00e+00 -1.00e+00
EMBD   ?    ?    ? P      ? 20220910 1558 39.8980 GAU  0.00e+00 -1.00e+00 -1.00e+00 -1.00e+00
EMBD   ?    ?    ? P      ? 20220910 1558 41.9880 GAU  0.00e+00 -1.00e+00 -1.00e+00 -1.00e+00
EMBD   ?    ?    ? S      ? 20220910 1559  1.0280 GAU  0.00e+00 -1.00e+00 -1.00e+00 -1.00e+00
ENAUX  ?    ?    ? P      ? 20220910 1559  9.0100 GAU  0.00e+00 -1.00e+00 -1.00e+00 -1.00e+00
ENDD   ?    ?    ? P      ? 20220910 1558 18.1000 GAU  0.00e+00 -1.00e+00 -1.00e+00 -1.00e+00
ENDD   ?    ?    ? S      ? 20220910 1558 20.9900 GAU  0.00e+00 -1.00e+00 -1.00e+00 -1.00e+00
ENR    ?    ?    ? P      ? 20220910 1559  6.5000 GAU  0.00e+00 -1.00e+00 -1.00e+00 -1.00e+00
ENR    ?    ?    ? S      ? 20220910 1559 10.1700 GAU  0.00e+00 -1.00e+00 -1.00e+00 -1.00e+00
ESCA   ?    ?    ? P      ? 20220910 1559 12.6200 GAU  0.00e+00 -1.00e+00 -1.00e+00 -1.00e+00
ETNF   ?    ?    ? P      ? 20220910 1558 35.0000 GAU  0.00e+00 -1.00e+00 -1.00e+00 -1.00e+00
ETNF   ?    ?    ? S      ? 20220910 1558 50.2300 GAU  0.00e+00 -1.00e+00 -1.00e+00 -1.00e+00
FAHY   ?    ?    ? P      ? 20220910 1558 37.0100 GAU  0.00e+00 -1.00e+00 -1.00e+00 -1.00e+00
FELD   ?    ?    ? P      ? 20220910 1558 22.1700 GAU  0.00e+00 -1.00e+00 -1.00e+00 -1.00e+00
FELD   ?    ?    ? S      ? 20220910 1558 28.0200 GAU  0.00e+00 -1.00e+00 -1.00e+00 -1.00e+00
FOURG  ?    ?    ? P      ? 20220910 1558 35.5300 GAU  0.00e+00 -1.00e+00 -1.00e+00 -1.00e+00
FOURG  ?    ?    ? S      ? 20220910 1558 54.5300 GAU  0.00e+00 -1.00e+00 -1.00e+00 -1.00e+00
GBOS   ?    ?    ? P      ? 20220910 1559  7.0700 GAU  0.00e+00 -1.00e+00 -1.00e+00 -1.00e+00
GIMEL  ?    ?    ? P      ? 20220910 1558 37.9450 GAU  0.00e+00 -1.00e+00 -1.00e+00 -1.00e+00
GIMEL  ?    ?    ? S      ? 20220910 1558 40.8450 GAU  0.00e+00 -1.00e+00 -1.00e+00 -1.00e+00
GIMEL  ?    ?    ? S      ? 20220910 1558 59.2150 GAU  0.00e+00 -1.00e+00 -1.00e+00 -1.00e+00
GORR   ?    ?    ? P      ? 20220910 1559  6.5500 GAU  0.00e+00 -1.00e+00 -1.00e+00 -1.00e+00
GP010  ?    ?    ? P      ? 20220910 1558 31.3830 GAU  0.00e+00 -1.00e+00 -1.00e+00 -1.00e+00
GP011  ?    ?    ? P      ? 20220910 1558 31.3660 GAU  0.00e+00 -1.00e+00 -1.00e+00 -1.00e+00
GP012  ?    ?    ? P      ? 20220910 1558 31.3730 GAU  0.00e+00 -1.00e+00 -1.00e+00 -1.00e+00
GP013  ?    ?    ? P      ? 20220910 1558 31.3780 GAU  0.00e+00 -1.00e+00 -1.00e+00 -1.00e+00
GP014  ?    ?    ? P      ? 20220910 1558 31.3750 GAU  0.00e+00 -1.00e+00 -1.00e+00 -1.00e+00
GP020  ?    ?    ? P      ? 20220910 1558 31.3660 GAU  0.00e+00 -1.00e+00 -1.00e+00 -1.00e+00
GP020  ?    ?    ? S      ? 20220910 1558 45.5660 GAU  0.00e+00 -1.00e+00 -1.00e+00 -1.00e+00
GP021  ?    ?    ? P      ? 20220910 1558 31.3660 GAU  0.00e+00 -1.00e+00 -1.00e+00 -1.00e+00
GP021  ?    ?    ? S      ? 20220910 1558 45.5660 GAU  0.00e+00 -1.00e+00 -1.00e+00 -1.00e+00
GP022  ?    ?    ? P      ? 20220910 1558 31.3720 GAU  0.00e+00 -1.00e+00 -1.00e+00 -1.00e+00
GP022  ?    ?    ? S      ? 20220910 1558 45.5720 GAU  0.00e+00 -1.00e+00 -1.00e+00 -1.00e+00
GP023  ?    ?    ? P      ? 20220910 1558 31.3780 GAU  0.00e+00 -1.00e+00 -1.00e+00 -1.00e+00
GP023  ?    ?    ? S      ? 20220910 1558 45.5680 GAU  0.00e+00 -1.00e+00 -1.00e+00 -1.00e+00
GP024  ?    ?    ? P      ? 20220910 1558 31.3790 GAU  0.00e+00 -1.00e+00 -1.00e+00 -1.00e+00
GP024  ?    ?    ? S      ? 20220910 1558 45.5690 GAU  0.00e+00 -1.00e+00 -1.00e+00 -1.00e+00
GP025  ?    ?    ? P      ? 20220910 1558 31.3710 GAU  0.00e+00 -1.00e+00 -1.00e+00 -1.00e+00
GP025  ?    ?    ? S      ? 20220910 1558 45.5710 GAU  0.00e+00 -1.00e+00 -1.00e+00 -1.00e+00
GP026  ?    ?    ? P      ? 20220910 1558 31.3770 GAU  0.00e+00 -1.00e+00 -1.00e+00 -1.00e+00
GP026  ?    ?    ? S      ? 20220910 1558 45.4870 GAU  0.00e+00 -1.00e+00 -1.00e+00 -1.00e+00
GPIL   ?    ?    ? P      ? 20220910 1558 31.3450 GAU  0.00e+00 -1.00e+00 -1.00e+00 -1.00e+00
GPIL   ?    ?    ? S      ? 20220910 1558 45.4750 GAU  0.00e+00 -1.00e+00 -1.00e+00 -1.00e+00
GRN    ?    ?    ? P      ? 20220910 1558 55.7000 GAU  0.00e+00 -1.00e+00 -1.00e+00 -1.00e+00
GRN    ?    ?    ? S      ? 20220910 1559  6.4500 GAU  0.00e+00 -1.00e+00 -1.00e+00 -1.00e+00
GUI    ?    ?    ? P      ? 20220910 1558 55.7350 GAU  0.00e+00 -1.00e+00 -1.00e+00 -1.00e+00
GUI    ?    ?    ? S      ? 20220910 1559  5.2750 GAU  0.00e+00 -1.00e+00 -1.00e+00 -1.00e+00
GUT    ?    ?    ? P      ? 20220910 1558 34.3700 GAU  0.00e+00 -1.00e+00 -1.00e+00 -1.00e+00
GUT    ?    ?    ? P      ? 20220910 1558 35.9900 GAU  0.00e+00 -1.00e+00 -1.00e+00 -1.00e+00
HOHE   ?    ?    ? P      ? 20220910 1558 31.9340 GAU  0.00e+00 -1.00e+00 -1.00e+00 -1.00e+00
HOHE   ?    ?    ? S      ? 20220910 1558 45.8540 GAU  0.00e+00 -1.00e+00 -1.00e+00 -1.00e+00
ILLF   ?    ?    ? P      ? 20220910 1558 17.5740 GAU  0.00e+00 -1.00e+00 -1.00e+00 -1.00e+00
ILLF   ?    ?    ? S      ? 20220910 1558 20.2440 GAU  0.00e+00 -1.00e+00 -1.00e+00 -1.00e+00
ILLK   ?    ?    ? P      ? 20220910 1558 31.0250 GAU  0.00e+00 -1.00e+00 -1.00e+00 -1.00e+00
ILLK   ?    ?    ? S      ? 20220910 1558 43.1150 GAU  0.00e+00 -1.00e+00 -1.00e+00 -1.00e+00
ISO    ?    ?    ? P      ? 20220910 1559  8.3900 GAU  0.00e+00 -1.00e+00 -1.00e+00 -1.00e+00
JAUF   ?    ?    ? P      ? 20220910 1559  5.1400 GAU  0.00e+00 -1.00e+00 -1.00e+00 -1.00e+00
KIZ    ?    ?    ? P      ? 20220910 1558 22.1400 GAU  0.00e+00 -1.00e+00 -1.00e+00 -1.00e+00
KIZ    ?    ?    ? S      ? 20220910 1558 27.8300 GAU  0.00e+00 -1.00e+00 -1.00e+00 -1.00e+00
LEMB   ?    ?    ? P      ? 20220910 1558 36.9740 GAU  0.00e+00 -1.00e+00 -1.00e+00 -1.00e+00
LSD    ?    ?    ? P      ? 20220910 1558 50.7000 GAU  0.00e+00 -1.00e+00 -1.00e+00 -1.00e+00
LSD    ?    ?    ? S      ? 20220910 1558 55.9100 GAU  0.00e+00 -1.00e+00 -1.00e+00 -1.00e+00
MANO   ?    ?    ? P      ? 20220910 1558 40.9000 GAU  0.00e+00 -1.00e+00 -1.00e+00 -1.00e+00
MANO   ?    ?    ? S      ? 20220910 1558 43.7100 GAU  0.00e+00 -1.00e+00 -1.00e+00 -1.00e+00
MGRO   ?    ?    ? P      ? 20220910 1559 10.1000 GAU  0.00e+00 -1.00e+00 -1.00e+00 -1.00e+00
MLYF   ?    ?    ? P      ? 20220910 1559 11.9700 GAU  0.00e+00 -1.00e+00 -1.00e+00 -1.00e+00
MVIF   ?    ?    ? P      ? 20220910 1559 12.1000 GAU  0.00e+00 -1.00e+00 -1.00e+00 -1.00e+00
MVIF   ?    ?    ? S      ? 20220910 1559 13.8200 GAU  0.00e+00 -1.00e+00 -1.00e+00 -1.00e+00
NEEW   ?    ?    ? P      ? 20220910 1558 37.0150 GAU  0.00e+00 -1.00e+00 -1.00e+00 -1.00e+00
NEEW   ?    ?    ? P      ? 20220910 1558 40.0950 GAU  0.00e+00 -1.00e+00 -1.00e+00 -1.00e+00
NEEW   ?    ?    ? S      ? 20220910 1558 58.5250 GAU  0.00e+00 -1.00e+00 -1.00e+00 -1.00e+00
NEUF   ?    ?    ? P      ? 20220910 1558 45.9700 GAU  0.00e+00 -1.00e+00 -1.00e+00 -1.00e+00
NEUF   ?    ?    ? S      ? 20220910 1558 50.3900 GAU  0.00e+00 -1.00e+00 -1.00e+00 -1.00e+00
OG02   ?    ?    ? P      ? 20220910 1558 42.4500 GAU  0.00e+00 -1.00e+00 -1.00e+00 -1.00e+00
OG02   ?    ?    ? S      ? 20220910 1558 47.3300 GAU  0.00e+00 -1.00e+00 -1.00e+00 -1.00e+00
OG02   ?    ?    ? S      ? 20220910 1559  8.8200 GAU  0.00e+00 -1.00e+00 -1.00e+00 -1.00e+00
OG35   ?    ?    ? P      ? 20220910 1558 46.6700 GAU  0.00e+00 -1.00e+00 -1.00e+00 -1.00e+00
OG35   ?    ?    ? S      ? 20220910 1558 53.5700 GAU  0.00e+00 -1.00e+00 -1.00e+00 -1.00e+00
OGAG   ?    ?    ? P      ? 20220910 1559  0.4100 GAU  0.00e+00 -1.00e+00 -1.00e+00 -1.00e+00
OGCB   ?    ?    ? P      ? 20220910 1559  2.8200 GAU  0.00e+00 -1.00e+00 -1.00e+00 -1.00e+00
OGCC   ?    ?    ? P      ? 20220910 1559  7.2100 GAU  0.00e+00 -1.00e+00 -1.00e+00 -1.00e+00
OGCE   ?    ?    ? P      ? 20220910 1559  1.7800 GAU  0.00e+00 -1.00e+00 -1.00e+00 -1.00e+00
OGCE   ?    ?    ? S      ? 20220910 1559 10.1300 GAU  0.00e+00 -1.00e+00 -1.00e+00 -1.00e+00
OGCN   ?    ?    ? P      ? 20220910 1558 59.4100 GAU  0.00e+00 -1.00e+00 -1.00e+00 -1.00e+00
OGCN   ?    ?    ? S      ? 20220910 1559 10.3500 GAU  0.00e+00 -1.00e+00 -1.00e+00 -1.00e+00
OGCY   ?    ?    ? P      ? 20220910 1558 50.6000 GAU  0.00e+00 -1.00e+00 -1.00e+00 -1.00e+00
OGDF   ?    ?    ? P      ? 20220910 1559  6.7100 GAU  0.00e+00 -1.00e+00 -1.00e+00 -1.00e+00
OGDI   ?    ?    ? P      ? 20220910 1559  9.4200 GAU  0.00e+00 -1.00e+00 -1.00e+00 -1.00e+00
OGJA   ?    ?    ? P      ? 20220910 1558 58.4800 GAU  0.00e+00 -1.00e+00 -1.00e+00 -1.00e+00
OGLC   ?    ?    ? P      ? 20220910 1559  6.2500 GAU  0.00e+00 -1.00e+00 -1.00e+00 -1.00e+00
OGMO   ?    ?    ? P      ? 20220910 1558 54.4300 GAU  0.00e+00 -1.00e+00 -1.00e+00 -1.00e+00
OGMY   ?    ?    ? P      ? 20220910 1558 47.0600 GAU  0.00e+00 -1.00e+00 -1.00e+00 -1.00e+00
OGMY   ?    ?    ? S      ? 20220910 1558 53.2700 GAU  0.00e+00 -1.00e+00 -1.00e+00 -1.00e+00
OGS1   ?    ?    ? P      ? 20220910 1558 57.4350 GAU  0.00e+00 -1.00e+00 -1.00e+00 -1.00e+00
OGS1   ?    ?    ? S      ? 20220910 1559  7.5850 GAU  0.00e+00 -1.00e+00 -1.00e+00 -1.00e+00
OGS2   ?    ?    ? P      ? 20220910 1558 57.4150 GAU  0.00e+00 -1.00e+00 -1.00e+00 -1.00e+00
OGS2   ?    ?    ? S      ? 20220910 1559  7.2650 GAU  0.00e+00 -1.00e+00 -1.00e+00 -1.00e+00
OGS3   ?    ?    ? P      ? 20220910 1558 57.3250 GAU  0.00e+00 -1.00e+00 -1.00e+00 -1.00e+00
OGS3   ?    ?    ? S      ? 20220910 1559  6.8650 GAU  0.00e+00 -1.00e+00 -1.00e+00 -1.00e+00
OGSA   ?    ?    ? P      ? 20220910 1558 57.0200 GAU  0.00e+00 -1.00e+00 -1.00e+00 -1.00e+00
OGSA   ?    ?    ? S      ? 20220910 1559  5.1500 GAU  0.00e+00 -1.00e+00 -1.00e+00 -1.00e+00
OGSI   ?    ?    ? P      ? 20220910 1558 41.9700 GAU  0.00e+00 -1.00e+00 -1.00e+00 -1.00e+00
OGSI   ?    ?    ? S      ? 20220910 1559  7.0100 GAU  0.00e+00 -1.00e+00 -1.00e+00 -1.00e+00
OGSM   ?    ?    ? P      ? 20220910 1558 51.2000 GAU  0.00e+00 -1.00e+00 -1.00e+00 -1.00e+00
OGSM   ?    ?    ? S      ? 20220910 1558 58.9900 GAU  0.00e+00 -1.00e+00 -1.00e+00 -1.00e+00
OGVA   ?    ?    ? P      ? 20220910 1558 38.6200 GAU  0.00e+00 -1.00e+00 -1.00e+00 -1.00e+00
OGVA   ?    ?    ? S      ? 20220910 1558 41.4300 GAU  0.00e+00 -1.00e+00 -1.00e+00 -1.00e+00
OGVA   ?    ?    ? S      ? 20220910 1559  0.3900 GAU  0.00e+00 -1.00e+00 -1.00e+00 -1.00e+00
OGVG   ?    ?    ? P      ? 20220910 1559  0.3000 GAU  0.00e+00 -1.00e+00 -1.00e+00 -1.00e+00
OGVG   ?    ?    ? S      ? 20220910 1559  9.7600 GAU  0.00e+00 -1.00e+00 -1.00e+00 -1.00e+00
OPP    ?    ?    ? P      ? 20220910 1558 31.0000 GAU  0.00e+00 -1.00e+00 -1.00e+00 -1.00e+00
OPP    ?    ?    ? S      ? 20220910 1558 44.7500 GAU  0.00e+00 -1.00e+00 -1.00e+00 -1.00e+00
OPS    ?    ?    ? P      ? 20220910 1558 35.8950 GAU  0.00e+00 -1.00e+00 -1.00e+00 -1.00e+00
OPS    ?    ?    ? P      ? 20220910 1558 38.5850 GAU  0.00e+00 -1.00e+00 -1.00e+00 -1.00e+00
OPS    ?    ?    ? S      ? 20220910 1558 55.7450 GAU  0.00e+00 -1.00e+00 -1.00e+00 -1.00e+00
PCP    ?    ?    ? P      ? 20220910 1559  4.9400 GAU  0.00e+00 -1.00e+00 -1.00e+00 -1.00e+00
PIAF   ?    ?    ? P      ? 20220910 1559  8.0500 GAU  0.00e+00 -1.00e+00 -1.00e+00 -1.00e+00
PZZ    ?    ?    ? P      ? 20220910 1559  3.3300 GAU  0.00e+00 -1.00e+00 -1.00e+00 -1.00e+00
R0220  ?    ?    ? P      ? 20220910 1558 16.4070 GAU  0.00e+00 -1.00e+00 -1.00e+00 -1.00e+00
R0220  ?    ?    ? S      ? 20220910 1558 18.1570 GAU  0.00e+00 -1.00e+00 -1.00e+00 -1.00e+00
R1104  ?    ?    ? P      ? 20220910 1558 27.8070 GAU  0.00e+00 -1.00e+00 -1.00e+00 -1.00e+00
R1104  ?    ?    ? S      ? 20220910 1558 37.4970 GAU  0.00e+00 -1.00e+00 -1.00e+00 -1.00e+00
R1869  ?    ?    ? P      ? 20220910 1558 33.0160 GAU  0.00e+00 -1.00e+00 -1.00e+00 -1.00e+00
R1869  ?    ?    ? S      ? 20220910 1558 47.1460 GAU  0.00e+00 -1.00e+00 -1.00e+00 -1.00e+00
R31D3  ?    ?    ? P      ? 20220910 1558 32.0930 GAU  0.00e+00 -1.00e+00 -1.00e+00 -1.00e+00
R31D3  ?    ?    ? P      ? 20220910 1558 32.9230 GAU  0.00e+00 -1.00e+00 -1.00e+00 -1.00e+00
R31D3  ?    ?    ? S      ? 20220910 1558 45.6930 GAU  0.00e+00 -1.00e+00 -1.00e+00 -1.00e+00
R45CC  ?    ?    ? P      ? 20220910 1558 31.8230 GAU  0.00e+00 -1.00e+00 -1.00e+00 -1.00e+00
R45CC  ?    ?    ? S      ? 20220910 1558 45.5230 GAU  0.00e+00 -1.00e+00 -1.00e+00 -1.00e+00
R4977  ?    ?    ? P      ? 20220910 1558 18.8280 GAU  0.00e+00 -1.00e+00 -1.00e+00 -1.00e+00
R4977  ?    ?    ? S      ? 20220910 1558 22.5080 GAU  0.00e+00 -1.00e+00 -1.00e+00 -1.00e+00
R4B4A  ?    ?    ? P      ? 20220910 1558 33.7520 GAU  0.00e+00 -1.00e+00 -1.00e+00 -1.00e+00
R52B5  ?    ?    ? P      ? 20220910 1558 29.7330 GAU  0.00e+00 -1.00e+00 -1.00e+00 -1.00e+00
R52B5  ?    ?    ? S      ? 20220910 1558 41.1030 GAU  0.00e+00 -1.00e+00 -1.00e+00 -1.00e+00
R5C13  ?    ?    ? P      ? 20220910 1558 30.1390 GAU  0.00e+00 -1.00e+00 -1.00e+00 -1.00e+00
R5C13  ?    ?    ? S      ? 20220910 1558 41.5890 GAU  0.00e+00 -1.00e+00 -1.00e+00 -1.00e+00
R6780  ?    ?    ? P      ? 20220910 1558 29.8910 GAU  0.00e+00 -1.00e+00 -1.00e+00 -1.00e+00
R6780  ?    ?    ? S      ? 20220910 1558 41.0610 GAU  0.00e+00 -1.00e+00 -1.00e+00 -1.00e+00
R7B4F  ?    ?    ? P      ? 20220910 1558 30.5380 GAU  0.00e+00 -1.00e+00 -1.00e+00 -1.00e+00
R7B4F  ?    ?    ? S      ? 20220910 1558 43.7780 GAU  0.00e+00 -1.00e+00 -1.00e+00 -1.00e+00
R890B  ?    ?    ? P      ? 20220910 1558 26.2930 GAU  0.00e+00 -1.00e+00 -1.00e+00 -1.00e+00
R890B  ?    ?    ? S      ? 20220910 1558 34.9230 GAU  0.00e+00 -1.00e+00 -1.00e+00 -1.00e+00
RA36C  ?    ?    ? P      ? 20220910 1558 25.8190 GAU  0.00e+00 -1.00e+00 -1.00e+00 -1.00e+00
RA36C  ?    ?    ? S      ? 20220910 1558 34.3090 GAU  0.00e+00 -1.00e+00 -1.00e+00 -1.00e+00
RA7C1  ?    ?    ? P      ? 20220910 1558 30.3320 GAU  0.00e+00 -1.00e+00 -1.00e+00 -1.00e+00
RA7C1  ?    ?    ? S      ? 20220910 1558 42.7820 GAU  0.00e+00 -1.00e+00 -1.00e+00 -1.00e+00
RC367  ?    ?    ? P      ? 20220910 1558 30.1290 GAU  0.00e+00 -1.00e+00 -1.00e+00 -1.00e+00
RC367  ?    ?    ? S      ? 20220910 1558 42.2590 GAU  0.00e+00 -1.00e+00 -1.00e+00 -1.00e+00
RD035  ?    ?    ? P      ? 20220910 1558 25.9140 GAU  0.00e+00 -1.00e+00 -1.00e+00 -1.00e+00
RD035  ?    ?    ? S      ? 20220910 1558 34.3740 GAU  0.00e+00 -1.00e+00 -1.00e+00 -1.00e+00
RD699  ?    ?    ? P      ? 20220910 1558 31.8480 GAU  0.00e+00 -1.00e+00 -1.00e+00 -1.00e+00
RD699  ?    ?    ? S      ? 20220910 1558 46.3880 GAU  0.00e+00 -1.00e+00 -1.00e+00 -1.00e+00
RD974  ?    ?    ? P      ? 20220910 1558 31.9810 GAU  0.00e+00 -1.00e+00 -1.00e+00 -1.00e+00
RD974  ?    ?    ? P      ? 20220910 1558 32.7810 GAU  0.00e+00 -1.00e+00 -1.00e+00 -1.00e+00
RD974  ?    ?    ? S      ? 20220910 1558 46.6910 GAU  0.00e+00 -1.00e+00 -1.00e+00 -1.00e+00
RDE4D  ?    ?    ? P      ? 20220910 1558 18.8380 GAU  0.00e+00 -1.00e+00 -1.00e+00 -1.00e+00
RDE4D  ?    ?    ? S      ? 20220910 1558 22.3680 GAU  0.00e+00 -1.00e+00 -1.00e+00 -1.00e+00
REA56  ?    ?    ? P      ? 20220910 1558 32.8840 GAU  0.00e+00 -1.00e+00 -1.00e+00 -1.00e+00
REA56  ?    ?    ? S      ? 20220910 1558 46.9340 GAU  0.00e+00 -1.00e+00 -1.00e+00 -1.00e+00
REMY   ?    ?    ? P      ? 20220910 1558 45.0600 GAU  0.00e+00 -1.00e+00 -1.00e+00 -1.00e+00
REMY   ?    ?    ? S      ? 20220910 1559 12.7100 GAU  0.00e+00 -1.00e+00 -1.00e+00 -1.00e+00
RES    ?    ?    ? P      ? 20220910 1558 55.8100 GAU  0.00e+00 -1.00e+00 -1.00e+00 -1.00e+00
RES    ?    ?    ? S      ? 20220910 1559  4.9500 GAU  0.00e+00 -1.00e+00 -1.00e+00 -1.00e+00
RF5BC  ?    ?    ? P      ? 20220910 1558 16.7270 GAU  0.00e+00 -1.00e+00 -1.00e+00 -1.00e+00
RF5BC  ?    ?    ? S      ? 20220910 1558 18.7570 GAU  0.00e+00 -1.00e+00 -1.00e+00 -1.00e+00
RFAD2  ?    ?    ? P      ? 20220910 1558 16.9510 GAU  0.00e+00 -1.00e+00 -1.00e+00 -1.00e+00
RFAD2  ?    ?    ? S      ? 20220910 1558 19.0910 GAU  0.00e+00 -1.00e+00 -1.00e+00 -1.00e+00
RFF1D  ?    ?    ? P      ? 20220910 1558 30.2960 GAU  0.00e+00 -1.00e+00 -1.00e+00 -1.00e+00
RFF1D  ?    ?    ? S      ? 20220910 1558 41.9860 GAU  0.00e+00 -1.00e+00 -1.00e+00 -1.00e+00
RIVEL  ?    ?    ? P      ? 20220910 1558 37.5800 GAU  0.00e+00 -1.00e+00 -1.00e+00 -1.00e+00
RIVEL  ?    ?    ? P      ? 20220910 1558 39.7100 GAU  0.00e+00 -1.00e+00 -1.00e+00 -1.00e+00
RIVEL  ?    ?    ? S      ? 20220910 1558 40.2100 GAU  0.00e+00 -1.00e+00 -1.00e+00 -1.00e+00
