<?xml version='1.0' encoding='utf-8'?>
<q:quakeml xmlns="http://quakeml.org/xmlns/bed/1.2" xmlns:q="http://quakeml.org/xmlns/quakeml/1.2">
  <eventParameters publicID="smi:local/02eca644-7f59-4a14-afcd-4ccf6af35618">
    <creationInfo>
      <creationTime>2023-01-25T00:34:08.597805Z</creationTime>
      <version>ObsPy 1.4.0</version>
    </creationInfo>
    <event publicID="smi:local/3effd865-d829-4409-8bf8-19ca5a2a6e86">
      <preferredOriginID>smi:local/9322d397-b39d-4427-9b1c-eec9738784b3</preferredOriginID>
      <comment>
        <text>france</text>
      </comment>
      <creationInfo>
        <author></author>
        <creationTime>2023-01-25T01:34:08.000000Z</creationTime>
        <version></version>
      </creationInfo>
      <origin publicID="smi:local/9322d397-b39d-4427-9b1c-eec9738784b3">
        <time>
          <value>2022-09-10T15:58:15.378923Z</value>
        </time>
        <latitude>
          <value>47.703394</value>
          <uncertainty>0.004756204113151746</uncertainty>
        </latitude>
        <longitude>
          <value>7.377215</value>
          <uncertainty>0.018113819578928058</uncertainty>
        </longitude>
        <depth>
          <value>25649.414</value>
          <uncertainty>668.360681069735</uncertainty>
          <confidenceLevel>68</confidenceLevel>
        </depth>
        <depthType>from location</depthType>
        <methodID>smi:local/NonLinLoc</methodID>
        <earthModelID>smi:local/../nll_template/nll_haslach_template.conf</earthModelID>
        <quality>
          <associatedPhaseCount>258</associatedPhaseCount>
          <usedPhaseCount>258</usedPhaseCount>
          <associatedStationCount>-1</associatedStationCount>
          <usedStationCount>160</usedStationCount>
          <depthPhaseCount>-1</depthPhaseCount>
          <standardError>1.37478</standardError>
          <azimuthalGap>37.6775</azimuthalGap>
          <secondaryAzimuthalGap>37.6775</secondaryAzimuthalGap>
          <groundTruthLevel>-</groundTruthLevel>
          <minimumDistance>0.42560664796585695</minimumDistance>
          <maximumDistance>4.0096703460689564</maximumDistance>
          <medianDistance>1.501237556760137</medianDistance>
        </quality>
        <evaluationMode>automatic</evaluationMode>
        <comment>
          <text>Note: Depth/Latitude/Longitude errors are calculated from covariance matrix as 1D marginal (Lon/Lat errors as great circle degrees) while OriginUncertainty min/max horizontal errors are calculated from 2D error ellipsoid and are therefore seemingly higher compared to 1D errors. Error estimates can be reconstructed from the following original NonLinLoc error statistics line:
STATISTICS ExpectX 1281.583009 Y 869.110775 Z 26.059303  CovXX 4.05686 XY -0.123884 XZ -0.0906113 YY 0.279699 YZ -0.011212 ZZ 0.446706 EllAz1  1.99023 Dip1  4.76306 Len1  0.984297 Az2  345.217 Dip2  -85.0263 Len2  1.25423 Len3  3.787215e+00</text>
        </comment>
        <creationInfo>
          <agencyID>RENASS</agencyID>
          <author>DBClust</author>
          <creationTime>2023-01-25T01:34:08.000000Z</creationTime>
          <version></version>
        </creationInfo>
        <originUncertainty>
          <preferredDescription>uncertainty ellipse</preferredDescription>
          <minHorizontalUncertainty>796.2230000000001</minHorizontalUncertainty>
          <maxHorizontalUncertainty>3056.1600000000003</maxHorizontalUncertainty>
          <azimuthMaxHorizontalUncertainty>91.8765</azimuthMaxHorizontalUncertainty>
          <confidenceLevel>68.0</confidenceLevel>
        </originUncertainty>
        <arrival publicID="smi:local/d0778e53-3ffd-4c2e-99a7-6fd160f46868">
          <pickID>smi:local/9ba9dba5-06d5-4877-8e11-ebcdcf859638</pickID>
          <phase>P</phase>
          <azimuth>218.06</azimuth>
          <distance>0.014774055342032905</distance>
          <timeResidual>0.0</timeResidual>
          <timeWeight>0.0</timeWeight>
        </arrival>
        <arrival publicID="smi:local/fd87b8af-6f18-4d34-a3f2-6df486166df2">
          <pickID>smi:local/32d44a3e-f2d0-4f95-8fe3-d13c7a66bd6c</pickID>
          <phase>S</phase>
          <azimuth>218.06</azimuth>
          <distance>0.014774055342032905</distance>
          <timeResidual>0.0</timeResidual>
          <timeWeight>0.0</timeWeight>
        </arrival>
        <arrival publicID="smi:local/1536db9e-aff1-4512-9d02-bc42d535247c">
          <pickID>smi:local/c3a6931b-39ca-429a-9aa3-1697403af094</pickID>
          <phase>P</phase>
          <azimuth>244.02</azimuth>
          <distance>0.08528356721087914</distance>
          <timeResidual>0.0</timeResidual>
          <timeWeight>0.0</timeWeight>
        </arrival>
        <arrival publicID="smi:local/4e559e0e-374d-4c80-b2ac-129bb1802889">
          <pickID>smi:local/1f3c7be4-af76-447c-bb62-bbe2ee95718f</pickID>
          <phase>S</phase>
          <azimuth>244.02</azimuth>
          <distance>0.08528356721087914</distance>
          <timeResidual>0.0</timeResidual>
          <timeWeight>0.0</timeWeight>
        </arrival>
        <arrival publicID="smi:local/9f566320-4eba-4d1a-8746-ec4b6aea2540">
          <pickID>smi:local/e02b1c28-af68-4f54-a2c4-122e9bfb4d67</pickID>
          <phase>P</phase>
          <azimuth>125.65</azimuth>
          <distance>0.09342422638765548</distance>
          <timeResidual>0.0</timeResidual>
          <timeWeight>0.0</timeWeight>
        </arrival>
        <arrival publicID="smi:local/73f97264-66b3-4603-a72f-e258a8e0b52d">
          <pickID>smi:local/2e72715a-f1e1-4660-a090-5411e4a45881</pickID>
          <phase>S</phase>
          <azimuth>125.65</azimuth>
          <distance>0.09342422638765548</distance>
          <timeResidual>0.0</timeResidual>
          <timeWeight>0.0</timeWeight>
        </arrival>
        <arrival publicID="smi:local/6492a298-6420-4b21-8103-6cc1ed9b547c">
          <pickID>smi:local/317aac4e-95e6-46cc-af8a-91edc84ce6cf</pickID>
          <phase>P</phase>
          <azimuth>46.3</azimuth>
          <distance>0.10529796955060049</distance>
          <timeResidual>0.0</timeResidual>
          <timeWeight>0.0</timeWeight>
        </arrival>
        <arrival publicID="smi:local/c629b2bd-d8a5-47ec-85a9-974bdb210636">
          <pickID>smi:local/1ca9de89-c15f-4461-ac3c-41794376afd9</pickID>
          <phase>S</phase>
          <azimuth>46.3</azimuth>
          <distance>0.10529796955060049</distance>
          <timeResidual>0.0</timeResidual>
          <timeWeight>0.0</timeWeight>
        </arrival>
        <arrival publicID="smi:local/53d6e66a-6346-483c-ae44-4926275af5d8">
          <pickID>smi:local/4d8327fd-0595-4027-8ab5-bd1262460af3</pickID>
          <phase>P</phase>
          <azimuth>316.18</azimuth>
          <distance>0.14217645064450987</distance>
          <timeResidual>0.0</timeResidual>
          <timeWeight>0.0</timeWeight>
        </arrival>
        <arrival publicID="smi:local/46b87069-3b80-4427-9a28-6cfa96f135fb">
          <pickID>smi:local/1e4fa897-ca02-4986-ba3b-2caf943b4717</pickID>
          <phase>S</phase>
          <azimuth>316.18</azimuth>
          <distance>0.14217645064450987</distance>
          <timeResidual>0.0</timeResidual>
          <timeWeight>0.0</timeWeight>
        </arrival>
        <arrival publicID="smi:local/b04af313-4298-41ff-a995-905d4dad4b59">
          <pickID>smi:local/7690948c-8163-4fb0-92cb-04aa746d3843</pickID>
          <phase>P</phase>
          <azimuth>326.47</azimuth>
          <distance>0.14368910958566516</distance>
          <timeResidual>0.0</timeResidual>
          <timeWeight>0.0</timeWeight>
        </arrival>
        <arrival publicID="smi:local/af55b5fc-5426-4fc6-8ecf-fc3d32a6c436">
          <pickID>smi:local/4063bafe-c946-41f6-b10f-709ac4a4ee48</pickID>
          <phase>S</phase>
          <azimuth>326.47</azimuth>
          <distance>0.14368910958566516</distance>
          <timeResidual>0.0</timeResidual>
          <timeWeight>0.0</timeWeight>
        </arrival>
        <arrival publicID="smi:local/9c6727f7-2878-488f-9bcd-afa39677c4a6">
          <pickID>smi:local/8b385696-b029-4127-b297-038c8e5a628f</pickID>
          <phase>P</phase>
          <azimuth>74.84</azimuth>
          <distance>0.24294093997967403</distance>
          <timeResidual>0.0</timeResidual>
          <timeWeight>0.0</timeWeight>
        </arrival>
        <arrival publicID="smi:local/6cb4a9a7-7c83-4f8e-800f-24eaee6f17e0">
          <pickID>smi:local/bb03321d-57a0-410b-a5d6-5344e2701214</pickID>
          <phase>S</phase>
          <azimuth>74.84</azimuth>
          <distance>0.24294093997967403</distance>
          <timeResidual>0.0</timeResidual>
          <timeWeight>0.0</timeWeight>
        </arrival>
        <arrival publicID="smi:local/b33f4035-e0a8-4eb3-823b-de34f0229626">
          <pickID>smi:local/e8ae9941-0c39-4d0a-8aad-c1549775d7fc</pickID>
          <phase>P</phase>
          <azimuth>333.04</azimuth>
          <distance>0.2707578565723463</distance>
          <timeResidual>0.0</timeResidual>
          <timeWeight>0.0</timeWeight>
        </arrival>
        <arrival publicID="smi:local/96442f1d-1986-4e95-8ee3-d1482d14db01">
          <pickID>smi:local/100fb21b-c9d4-49bd-8945-50a14d86e526</pickID>
          <phase>S</phase>
          <azimuth>333.04</azimuth>
          <distance>0.2707578565723463</distance>
          <timeResidual>0.0</timeResidual>
          <timeWeight>0.0</timeWeight>
        </arrival>
        <arrival publicID="smi:local/d8e7da4a-c0dd-4f25-af7d-0a8658b049c9">
          <pickID>smi:local/9b9d9f58-769e-43e9-8158-10ac57113f6d</pickID>
          <phase>P</phase>
          <azimuth>185.37</azimuth>
          <distance>0.324940184685738</distance>
          <timeResidual>0.0</timeResidual>
          <timeWeight>0.0</timeWeight>
        </arrival>
        <arrival publicID="smi:local/ef943ade-b255-4895-a47c-25989e066a74">
          <pickID>smi:local/3a61df98-5ff7-4b56-8db5-36fe7a4cbfb0</pickID>
          <phase>S</phase>
          <azimuth>185.37</azimuth>
          <distance>0.324940184685738</distance>
          <timeResidual>0.0</timeResidual>
          <timeWeight>0.0</timeWeight>
        </arrival>
        <arrival publicID="smi:local/a52e15e9-760f-4b74-9511-89b9b3cda541">
          <pickID>smi:local/e64eb7a1-f69b-4259-a624-dbcbdf218f79</pickID>
          <phase>P</phase>
          <azimuth>137.03</azimuth>
          <distance>0.42560664796585695</distance>
          <timeResidual>-3.371</timeResidual>
          <timeWeight>0.07</timeWeight>
        </arrival>
        <arrival publicID="smi:local/27666288-56c7-411d-a0fe-8a56e811787f">
          <pickID>smi:local/3302bd2e-1ad6-4960-a326-0d17bf510606</pickID>
          <phase>S</phase>
          <azimuth>137.03</azimuth>
          <distance>0.42560664796585695</distance>
          <timeResidual>-0.8465</timeResidual>
          <timeWeight>0.577</timeWeight>
        </arrival>
        <arrival publicID="smi:local/50d116d6-0897-41d1-8fe5-9633386d6095">
          <pickID>smi:local/5c168758-b39b-4a34-aa0e-128df93e3815</pickID>
          <phase>P</phase>
          <azimuth>14.9</azimuth>
          <distance>0.42591511527668713</distance>
          <timeResidual>-2.0802</timeResidual>
          <timeWeight>0.0904</timeWeight>
        </arrival>
        <arrival publicID="smi:local/f22e3e11-e9be-47f5-8ed7-2d3238916c24">
          <pickID>smi:local/9eb34b7a-2332-42c5-ad2e-1863f73bfe26</pickID>
          <phase>S</phase>
          <azimuth>14.9</azimuth>
          <distance>0.42591511527668713</distance>
          <timeResidual>0.1567</timeResidual>
          <timeWeight>2.0654</timeWeight>
        </arrival>
        <arrival publicID="smi:local/6cd2dcee-74f8-45b9-95bc-57d3215127ed">
          <pickID>smi:local/11248e04-da9f-48eb-ad36-85f24cf19c44</pickID>
          <phase>P</phase>
          <azimuth>42.54</azimuth>
          <distance>0.4430750708392224</distance>
          <timeResidual>-2.8919</timeResidual>
          <timeWeight>0.0506</timeWeight>
        </arrival>
        <arrival publicID="smi:local/306c7860-55b7-407f-b41a-dfe05e1a0afd">
          <pickID>smi:local/e287a81d-4fec-4c08-ba69-83de265b6b18</pickID>
          <phase>S</phase>
          <azimuth>42.54</azimuth>
          <distance>0.4430750708392224</distance>
          <timeResidual>-4.5171</timeResidual>
          <timeWeight>0.0423</timeWeight>
        </arrival>
        <arrival publicID="smi:local/85b7140e-d1b1-44c7-ba72-f3f757358f01">
          <pickID>smi:local/bcf3fa87-b27f-4376-a77b-3682bc327c47</pickID>
          <phase>P</phase>
          <azimuth>55.0</azimuth>
          <distance>0.45605048296941786</distance>
          <timeResidual>-3.0371</timeResidual>
          <timeWeight>0.056</timeWeight>
        </arrival>
        <arrival publicID="smi:local/7654e0ab-9d02-4984-a63d-0de7827bcbe8">
          <pickID>smi:local/b9d5ec2c-a625-4a5d-813d-252488987afd</pickID>
          <phase>S</phase>
          <azimuth>55.0</azimuth>
          <distance>0.45605048296941786</distance>
          <timeResidual>-4.6516</timeResidual>
          <timeWeight>0.0517</timeWeight>
        </arrival>
        <arrival publicID="smi:local/d22d52bc-dc8a-4e01-aef1-d4c7f127a941">
          <pickID>smi:local/c36913c1-e74a-4972-9248-ce8466cf4639</pickID>
          <phase>P</phase>
          <azimuth>258.55</azimuth>
          <distance>0.49362144169988464</distance>
          <timeResidual>-1.1444</timeResidual>
          <timeWeight>0.3925</timeWeight>
        </arrival>
        <arrival publicID="smi:local/e6238a69-f00f-4039-b0f8-b6ee2c6f8566">
          <pickID>smi:local/b3659746-1a33-4de9-9923-3844db8ae518</pickID>
          <phase>S</phase>
          <azimuth>258.55</azimuth>
          <distance>0.49362144169988464</distance>
          <timeResidual>-1.5113</timeResidual>
          <timeWeight>0.1953</timeWeight>
        </arrival>
        <arrival publicID="smi:local/f890c50e-840d-4f95-b8de-c8ec419b9e80">
          <pickID>smi:local/e58674ed-c730-491f-aee4-212c3b23ca29</pickID>
          <phase>P</phase>
          <azimuth>96.73</azimuth>
          <distance>0.5262991915725477</distance>
          <timeResidual>-3.3106</timeResidual>
          <timeWeight>0.075</timeWeight>
        </arrival>
        <arrival publicID="smi:local/d84a50b5-cc2f-4852-9daa-6c9fec042b3f">
          <pickID>smi:local/53be38a9-9bd0-4338-b511-56f6baf6e9fa</pickID>
          <phase>S</phase>
          <azimuth>96.73</azimuth>
          <distance>0.5262991915725477</distance>
          <timeResidual>-4.8836</timeResidual>
          <timeWeight>0.0337</timeWeight>
        </arrival>
        <arrival publicID="smi:local/6c57e6a3-9552-454a-9024-1159fba32fb8">
          <pickID>smi:local/23c65ef7-722a-4580-84d4-e693e3d764e4</pickID>
          <phase>P</phase>
          <azimuth>353.63</azimuth>
          <distance>0.5564588409486382</distance>
          <timeResidual>-0.7439</timeResidual>
          <timeWeight>0.6108</timeWeight>
        </arrival>
        <arrival publicID="smi:local/07d23e4a-691f-45f0-b60d-545cb6434804">
          <pickID>smi:local/b61bfb29-2140-4422-b0db-cc4110cd0252</pickID>
          <phase>S</phase>
          <azimuth>353.63</azimuth>
          <distance>0.5564588409486382</distance>
          <timeResidual>-0.8739</timeResidual>
          <timeWeight>0.5621</timeWeight>
        </arrival>
        <arrival publicID="smi:local/001b3577-1692-459e-9316-07434390a74f">
          <pickID>smi:local/5e4f29a3-e3be-4850-8d52-e369f47bb905</pickID>
          <phase>P</phase>
          <azimuth>349.44</azimuth>
          <distance>0.5661652190413191</distance>
          <timeResidual>-0.7799</timeResidual>
          <timeWeight>0.6055</timeWeight>
        </arrival>
        <arrival publicID="smi:local/a9ae3d36-550f-4cfe-9a90-536fc885f8f5">
          <pickID>smi:local/c08bf0eb-e06b-4762-9dfa-7a6dbf9d84fa</pickID>
          <phase>S</phase>
          <azimuth>349.44</azimuth>
          <distance>0.5661652190413191</distance>
          <timeResidual>-1.0517</timeResidual>
          <timeWeight>0.4703</timeWeight>
        </arrival>
        <arrival publicID="smi:local/5ce4758e-ae14-4473-8fed-2da8ec5c7d60">
          <pickID>smi:local/3c90a969-cbce-460c-878a-ce7c18f4840f</pickID>
          <phase>P</phase>
          <azimuth>345.57</azimuth>
          <distance>0.6026587904878953</distance>
          <timeResidual>-0.8938</timeResidual>
          <timeWeight>0.5498</timeWeight>
        </arrival>
        <arrival publicID="smi:local/8b614136-1a3c-4ad7-b5a9-14144db716ea">
          <pickID>smi:local/828269ac-059b-431f-80a3-478b3d21ead8</pickID>
          <phase>S</phase>
          <azimuth>345.57</azimuth>
          <distance>0.6026587904878953</distance>
          <timeResidual>-1.4156</timeResidual>
          <timeWeight>0.2591</timeWeight>
        </arrival>
        <arrival publicID="smi:local/35a881d8-8769-4588-a437-b69540233378">
          <pickID>smi:local/223438e4-293e-4185-b507-03b098694d86</pickID>
          <phase>P</phase>
          <azimuth>3.31</azimuth>
          <distance>0.6223620275519688</distance>
          <timeResidual>-0.6789</timeResidual>
          <timeWeight>0.6145</timeWeight>
        </arrival>
        <arrival publicID="smi:local/502834b1-eaf0-47b4-96fe-a70d148ec5ab">
          <pickID>smi:local/c268c000-136f-4c4d-8748-8d127f106954</pickID>
          <phase>S</phase>
          <azimuth>3.31</azimuth>
          <distance>0.6223620275519688</distance>
          <timeResidual>-1.1675</timeResidual>
          <timeWeight>0.4081</timeWeight>
        </arrival>
        <arrival publicID="smi:local/8d4f925d-92ec-48d8-b5a6-a49ed162708c">
          <pickID>smi:local/c4068ef3-d3e9-4cd1-97f1-b8dd6963eb9e</pickID>
          <phase>P</phase>
          <azimuth>320.79</azimuth>
          <distance>0.6572620011128568</distance>
          <timeResidual>-0.1172</timeResidual>
          <timeWeight>2.0923</timeWeight>
        </arrival>
        <arrival publicID="smi:local/25a59a7f-3e96-4fd0-be69-66e33ecf94a3">
          <pickID>smi:local/e13f1fda-b8f9-48f8-9be3-59db8db9ce00</pickID>
          <phase>S</phase>
          <azimuth>320.79</azimuth>
          <distance>0.6572620011128568</distance>
          <timeResidual>-0.2075</timeResidual>
          <timeWeight>1.6485</timeWeight>
        </arrival>
        <arrival publicID="smi:local/b93732ae-82b4-4dc7-ba5e-256239324057">
          <pickID>smi:local/7bea813d-a32b-464e-a7e1-b9d00f1d7d53</pickID>
          <phase>P</phase>
          <azimuth>214.99</azimuth>
          <distance>0.6694163326168485</distance>
          <timeResidual>-0.7584</timeResidual>
          <timeWeight>0.6092</timeWeight>
        </arrival>
        <arrival publicID="smi:local/deb9c637-b857-4de4-9a79-ba1152e5231f">
          <pickID>smi:local/e4d55739-dfca-472a-81c5-6043131ded2b</pickID>
          <phase>S</phase>
          <azimuth>214.99</azimuth>
          <distance>0.6694163326168485</distance>
          <timeResidual>-1.4286</timeResidual>
          <timeWeight>0.2549</timeWeight>
        </arrival>
        <arrival publicID="smi:local/402f84ca-2e52-4f1b-adac-0d86fc951d66">
          <pickID>smi:local/40ad705d-7984-46c5-a7f5-8c3606c61cbb</pickID>
          <phase>P</phase>
          <azimuth>346.11</azimuth>
          <distance>0.7116808508086052</distance>
          <timeResidual>-0.0243</timeResidual>
          <timeWeight>2.2975</timeWeight>
        </arrival>
        <arrival publicID="smi:local/ba04d1c2-ee61-4343-bb94-4626bab1196a">
          <pickID>smi:local/366419c9-8efe-4e0e-804f-faaffccba7c7</pickID>
          <phase>S</phase>
          <azimuth>346.11</azimuth>
          <distance>0.7116808508086052</distance>
          <timeResidual>-0.661</timeResidual>
          <timeWeight>0.7106</timeWeight>
        </arrival>
        <arrival publicID="smi:local/b4b17cb8-7159-4ec6-94e5-8d7bc69fb6bb">
          <pickID>smi:local/6811683a-4e28-4e71-8491-d37797312c2e</pickID>
          <phase>P</phase>
          <azimuth>72.44</azimuth>
